KUIPER-00157            
1 65970U 25228Z   25361.16440868  .00047341  00000+0  13045-2 0  9993
2 65970  51.8806 310.9911 0007663  81.0094 279.1760 15.36636715 12632
KUIPER-00144            
1 67133U 25301A   25361.41541978  .00024127  00000+0  69698-3 0  9993
2 67133  51.8710  54.3641 0006237 125.1706 234.9864 15.35509765  2629
KUIPER-00164            
1 67134U 25301B   25361.41016464  .00016620  00000+0  47384-3 0  9998
2 67134  51.8730  54.3288 0003221 106.1855 253.9486 15.36187995  2802
KUIPER-00175            
1 67135U 25301C   25361.47167937  .00028408  00000+0  78921-3 0  9995
2 67135  51.8749  53.9860 0002356  58.0716 302.0500 15.36651953  2705
KUIPER-00179            
1 67136U 25301D   25361.47389471  .00035275  00000+0  98752-3 0  9999
2 67136  51.8746  54.0038 0002962  89.0491 271.0834 15.36302591  2817
KUIPER-00181            
1 67137U 25301E   25361.42286382  .00027240  00000+0  81017-3 0  9991
2 67137  51.8655  54.4126 0010131 147.6488 212.5120 15.34493384  2786
KUIPER-00183            
1 67138U 25301F   25361.42529992  .00023568  00000+0  71009-3 0  9998
2 67138  51.8621  54.4270 0011206 152.1760 207.9826 15.34156371  2792
KUIPER-00184            
1 67139U 25301G   25361.42210515  .00037461  00000+0  11117-2 0  9997
2 67139  51.8639  54.4076 0009095 146.9693 213.1862 15.34410762  2904
